{
  "type": "FeatureCollection",
  "features": [
    {
      "type": "Feature",
      "properties": {
        "norad_id": 38833,
        "name": "GPS BIIF-3  (PRN 24)",
        "group": "gps-ops",
        "lat": -23.3633190656842,
        "lon": 132.75116503432074,
        "alt_km": 20205.5589107768,
        "timestamp": "2025-12-09T07:41:33.466216+00:00",
        "meta_object_name": "GPS BIIF-3  (PRN 24)",
        "meta_object_id": "2012-053A",
        "meta_epoch": "2025-12-07T20:46:13.738656",
        "meta_mean_motion": 2.00564906,
        "meta_eccentricity": 0.01756617,
        "meta_inclination": 53.5567,
        "meta_ra_of_asc_node": 151.4383,
        "meta_arg_of_pericenter": 63.924,
        "meta_mean_anomaly": 297.8703,
        "meta_ephemeris_type": 0,
        "meta_classification_type": "U",
        "meta_norad_cat_id": 38833,
        "meta_element_set_no": 999,
        "meta_rev_at_epoch": 9560,
        "meta_bstar": 0,
        "meta_mean_motion_dot": 5.3e-07,
        "meta_mean_motion_ddot": 0,
        "tle_line1": "1 38833U 12053A   25341.86543679  .00000053  00000+0  00000+0 0  9995",
        "tle_line2": "2 38833  53.5567 151.4383 0175661  63.9240 297.8703  2.00564906 95601"
      },
      "geometry": {
        "type": "Point",
        "coordinates": [
          132.75116503432074,
          -23.3633190656842
        ]
      }
    },
    {
      "type": "Feature",
      "properties": {
        "norad_id": 39166,
        "name": "GPS BIIF-4  (PRN 27)",
        "group": "gps-ops",
        "lat": 50.335898795007346,
        "lon": -24.571792512116538,
        "alt_km": 19837.163318651023,
        "timestamp": "2025-12-09T07:41:33.466260+00:00",
        "meta_object_name": "GPS BIIF-4  (PRN 27)",
        "meta_object_id": "2013-023A",
        "meta_epoch": "2025-12-08T05:28:17.877216",
        "meta_mean_motion": 2.00565078,
        "meta_eccentricity": 0.01376231,
        "meta_inclination": 54.656,
        "meta_ra_of_asc_node": 276.7517,
        "meta_arg_of_pericenter": 48.5653,
        "meta_mean_anomaly": 312.6225,
        "meta_ephemeris_type": 0,
        "meta_classification_type": "U",
        "meta_norad_cat_id": 39166,
        "meta_element_set_no": 999,
        "meta_rev_at_epoch": 9205,
        "meta_bstar": 0,
        "meta_mean_motion_dot": -4.1e-07,
        "meta_mean_motion_ddot": 0,
        "tle_line1": "1 39166U 13023A   25342.22798469 -.00000041  00000+0  00000+0 0  9991",
        "tle_line2": "2 39166  54.6560 276.7517 0137623  48.5653 312.6225  2.00565078 92051"
      },
      "geometry": {
        "type": "Point",
        "coordinates": [
          -24.571792512116538,
          50.335898795007346
        ]
      }
    },
    {
      "type": "Feature",
      "properties": {
        "norad_id": 39533,
        "name": "GPS BIIF-5  (PRN 30)",
        "group": "gps-ops",
        "lat": 49.976388529974955,
        "lon": -141.57184340408975,
        "alt_km": 20364.441451967155,
        "timestamp": "2025-12-09T07:41:33.466276+00:00",
        "meta_object_name": "GPS BIIF-5  (PRN 30)",
        "meta_object_id": "2014-008A",
        "meta_epoch": "2025-12-08T17:17:53.715840",
        "meta_mean_motion": 2.00574163,
        "meta_eccentricity": 0.00791122,
        "meta_inclination": 53.6309,
        "meta_ra_of_asc_node": 157.0886,
        "meta_arg_of_pericenter": 226.4438,
        "meta_mean_anomaly": 132.9028,
        "meta_ephemeris_type": 0,
        "meta_classification_type": "U",
        "meta_norad_cat_id": 39533,
        "meta_element_set_no": 999,
        "meta_rev_at_epoch": 8586,
        "meta_bstar": 0,
        "meta_mean_motion_dot": 5.9e-07,
        "meta_mean_motion_ddot": 0,
        "tle_line1": "1 39533U 14008A   25342.72076060  .00000059  00000+0  00000+0 0  9992",
        "tle_line2": "2 39533  53.6309 157.0886 0079112 226.4438 132.9028  2.00574163 85865"
      },
      "geometry": {
        "type": "Point",
        "coordinates": [
          -141.57184340408975,
          49.976388529974955
        ]
      }
    },
    {
      "type": "Feature",
      "properties": {
        "norad_id": 39741,
        "name": "GPS BIIF-6  (PRN 06)",
        "group": "gps-ops",
        "lat": -38.3554934925126,
        "lon": -169.60470305784276,
        "alt_km": 20187.18485031358,
        "timestamp": "2025-12-09T07:41:33.466289+00:00",
        "meta_object_name": "GPS BIIF-6  (PRN 06)",
        "meta_object_id": "2014-026A",
        "meta_epoch": "2025-12-08T00:09:26.593920",
        "meta_mean_motion": 2.00561568,
        "meta_eccentricity": 0.00390609,
        "meta_inclination": 56.5854,
        "meta_ra_of_asc_node": 338.9605,
        "meta_arg_of_pericenter": 318.4068,
        "meta_mean_anomaly": 41.3073,
        "meta_ephemeris_type": 0,
        "meta_classification_type": "U",
        "meta_norad_cat_id": 39741,
        "meta_element_set_no": 999,
        "meta_rev_at_epoch": 8470,
        "meta_bstar": 0,
        "meta_mean_motion_dot": -8.2e-07,
        "meta_mean_motion_ddot": 0,
        "tle_line1": "1 39741U 14026A   25342.00655780 -.00000082  00000+0  00000+0 0  9993",
        "tle_line2": "2 39741  56.5854 338.9605 0039060 318.4068  41.3073  2.00561568 84701"
      },
      "geometry": {
        "type": "Point",
        "coordinates": [
          -169.60470305784276,
          -38.3554934925126
        ]
      }
    },
    {
      "type": "Feature",
      "properties": {
        "norad_id": 40105,
        "name": "GPS BIIF-7  (PRN 09)",
        "group": "gps-ops",
        "lat": 11.450044369489003,
        "lon": -92.04958139638634,
        "alt_km": 20119.808628104052,
        "timestamp": "2025-12-09T07:41:33.466302+00:00",
        "meta_object_name": "GPS BIIF-7  (PRN 09)",
        "meta_object_id": "2014-045A",
        "meta_epoch": "2025-12-08T14:13:50.768544",
        "meta_mean_motion": 2.00572212,
        "meta_eccentricity": 0.00327724,
        "meta_inclination": 55.2267,
        "meta_ra_of_asc_node": 96.0644,
        "meta_arg_of_pericenter": 119.7768,
        "meta_mean_anomaly": 240.5333,
        "meta_ephemeris_type": 0,
        "meta_classification_type": "U",
        "meta_norad_cat_id": 40105,
        "meta_element_set_no": 999,
        "meta_rev_at_epoch": 8225,
        "meta_bstar": 0,
        "meta_mean_motion_dot": 0,
        "meta_mean_motion_ddot": 0,
        "tle_line1": "1 40105U 14045A   25342.59294871  .00000000  00000+0  00000+0 0  9993",
        "tle_line2": "2 40105  55.2267  96.0644 0032772 119.7768 240.5333  2.00572212 82256"
      },
      "geometry": {
        "type": "Point",
        "coordinates": [
          -92.04958139638634,
          11.450044369489003
        ]
      }
    },
    {
      "type": "Feature",
      "properties": {
        "norad_id": 40294,
        "name": "GPS BIIF-8  (PRN 03)",
        "group": "gps-ops",
        "lat": -53.718088834871295,
        "lon": -78.90847369398448,
        "alt_km": 20349.031392800658,
        "timestamp": "2025-12-09T07:41:33.466314+00:00",
        "meta_object_name": "GPS BIIF-8  (PRN 03)",
        "meta_object_id": "2014-068A",
        "meta_epoch": "2025-12-08T11:17:40.854336",
        "meta_mean_motion": 2.00564487,
        "meta_eccentricity": 0.00607942,
        "meta_inclination": 56.8546,
        "meta_ra_of_asc_node": 38.3112,
        "meta_arg_of_pericenter": 69.2801,
        "meta_mean_anomaly": 291.427,
        "meta_ephemeris_type": 0,
        "meta_classification_type": "U",
        "meta_norad_cat_id": 40294,
        "meta_element_set_no": 999,
        "meta_rev_at_epoch": 8138,
        "meta_bstar": 0,
        "meta_mean_motion_dot": -7.8e-07,
        "meta_mean_motion_ddot": 0,
        "tle_line1": "1 40294U 14068A   25342.47061174 -.00000078  00000+0  00000+0 0  9998",
        "tle_line2": "2 40294  56.8546  38.3112 0060794  69.2801 291.4270  2.00564487 81386"
      },
      "geometry": {
        "type": "Point",
        "coordinates": [
          -78.90847369398448,
          -53.718088834871295
        ]
      }
    },
    {
      "type": "Feature",
      "properties": {
        "norad_id": 40534,
        "name": "GPS BIIF-9  (PRN 26)",
        "group": "gps-ops",
        "lat": 14.595709283604178,
        "lon": 20.806011100791164,
        "alt_km": 20334.12293613322,
        "timestamp": "2025-12-09T07:41:33.466326+00:00",
        "meta_object_name": "GPS BIIF-9  (PRN 26)",
        "meta_object_id": "2015-013A",
        "meta_epoch": "2025-12-08T14:24:53.320032",
        "meta_mean_motion": 2.00562777,
        "meta_eccentricity": 0.0106864,
        "meta_inclination": 53.1983,
        "meta_ra_of_asc_node": 212.0617,
        "meta_arg_of_pericenter": 38.3765,
        "meta_mean_anomaly": 322.4632,
        "meta_ephemeris_type": 0,
        "meta_classification_type": "U",
        "meta_norad_cat_id": 40534,
        "meta_element_set_no": 999,
        "meta_rev_at_epoch": 7800,
        "meta_bstar": 0,
        "meta_mean_motion_dot": 2.2e-07,
        "meta_mean_motion_ddot": 0,
        "tle_line1": "1 40534U 15013A   25342.60061713  .00000022  00000+0  00000+0 0  9998",
        "tle_line2": "2 40534  53.1983 212.0617 0106864  38.3765 322.4632  2.00562777 78006"
      },
      "geometry": {
        "type": "Point",
        "coordinates": [
          20.806011100791164,
          14.595709283604178
        ]
      }
    }
  ]
}